LEMUR-2-JK0903EM1407    
1 58336U 23174CJ  26095.76756123  .00029574  00000+0  56105-3 0  9997
2 58336  97.3892 184.4248 0004799  26.6395 333.5101 15.48260201134515
LEMUR-2-MJR092620       
1 58340U 23174CN  26095.81885374  .00014010  00000+0  32038-3 0  9997
2 58340  97.3960 184.6509 0007000  31.8900 328.2770 15.42914667134481
LEMUR-2-NIMBUS2000      
1 58899U 24022A   26095.83510140  .00020208  00000+0  54420-3 0  9992
2 58899  97.4192 305.0172 0009557  27.1299 333.0444 15.37832431121144
LEMUR-2-VALHALLA        
1 58900U 24022B   26095.55823018  .00019519  00000+0  53012-3 0  9994
2 58900  97.4188 304.7607 0010002  23.2896 336.8800 15.37573321121101
LEMUR-2-OBA-NI-JESU     
1 58902U 24022D   26095.58953874  .00153528  00000+0  11411-2 0  9998
2 58902  97.3988 315.1454 0002261 330.4076  29.7059 15.72368687121815
LEMUR-2-CAEL            
1 58903U 24022E   26095.56074155  .00020590  00000+0  53853-3 0  9992
2 58903  97.4171 305.5789 0007881   8.4508 351.6869 15.38745526121167
LEMUR-2-JOHNNYTRUONG    
1 59146U 24043BA  26095.37217501  .00047973  00000+0  70393-3 0  9990
2 59146  97.5309 242.8963 0004931  95.1752 265.0065 15.55372726116702
LEMUR-2-TOMATOKECHUP    
1 60471U 24149D   26095.76051036  .00015256  00000+0  45746-3 0  9995
2 60471  97.3806 177.7046 0003179 120.8198 239.3358 15.34567467 91050
LEMUR-2-STELLA          
1 60533U 24149BT  26095.76637148  .00016526  00000+0  10119-2 0  9994
2 60533  97.6742 177.9953 0000845 119.7947 240.3366 15.10274353 89563
LEMUR-2-MARHISYAM       
1 60536U 24149BW  26095.72214628  .00015486  00000+0  96122-3 0  9990
2 60536  97.6876 178.3221 0002062  44.8528 315.2868 15.09790226 89540
LEMUR-2-AHMED-ASRAR     
1 60576U 24149DN  26095.75646090  .00015469  00000+0  92533-3 0  9992
2 60576  97.7003 180.1806 0001388 198.2879 161.8301 15.11137895 89626
LEMUR-2-LLOYD           
1 60577U 24149DP  26095.74081160  .00013418  00000+0  87782-3 0  9995
2 60577  97.6760 176.9098 0004632  55.8913 304.2753 15.07886193 89478
LEMUR-2-SQUIRRELCOMM    
1 60578U 24149DQ  26095.66821455  .00007828  00000+0  53634-3 0  9993
2 60578  97.6720 176.8545 0004059 304.2434  55.8408 15.06325836 89481
LEMUR-2-SIERRINI        
1 60579U 24149DR  26095.79662295  .00015276  00000+0  95632-3 0  9993
2 60579  97.6842 178.1573 0006220  75.1720 285.0197 15.09467104 89533
LEMUR-2-WILSON          
1 62694U 25009CP  26095.80950480  .00003493  00000+0  32588-3 0  9996
2 62694  97.7033 175.5574 0001890 278.7015  81.3991 14.94852120 66548
LEMUR-2-STAR-FOX        
1 62696U 25009CR  26095.80864588  .00011945  00000+0  92732-3 0  9999
2 62696  97.6976 178.0223 0003298 106.9963 253.1622 15.01491961 66699
