[{"OBJECT_NAME":"LEMUR-2-JK0903EM1407","OBJECT_ID":"2023-174CJ","EPOCH":"2026-04-05T18:25:17.290272","MEAN_MOTION":15.48260201,"ECCENTRICITY":0.0004799,"INCLINATION":97.3892,"RA_OF_ASC_NODE":184.4248,"ARG_OF_PERICENTER":26.6395,"MEAN_ANOMALY":333.5101,"EPHEMERIS_TYPE":0,"CLASSIFICATION_TYPE":"U","NORAD_CAT_ID":58336,"ELEMENT_SET_NO":999,"REV_AT_EPOCH":13451,"BSTAR":0.00056105,"MEAN_MOTION_DOT":0.00029574,"MEAN_MOTION_DDOT":0},{"OBJECT_NAME":"LEMUR-2-MJR092620","OBJECT_ID":"2023-174CN","EPOCH":"2026-04-05T19:39:08.963136","MEAN_MOTION":15.42914667,"ECCENTRICITY":0.0007,"INCLINATION":97.396,"RA_OF_ASC_NODE":184.6509,"ARG_OF_PERICENTER":31.89,"MEAN_ANOMALY":328.277,"EPHEMERIS_TYPE":0,"CLASSIFICATION_TYPE":"U","NORAD_CAT_ID":58340,"ELEMENT_SET_NO":999,"REV_AT_EPOCH":13448,"BSTAR":0.00032038,"MEAN_MOTION_DOT":0.0001401,"MEAN_MOTION_DDOT":0},{"OBJECT_NAME":"LEMUR-2-NIMBUS2000","OBJECT_ID":"2024-022A","EPOCH":"2026-04-05T20:02:32.760960","MEAN_MOTION":15.37832431,"ECCENTRICITY":0.0009557,"INCLINATION":97.4192,"RA_OF_ASC_NODE":305.0172,"ARG_OF_PERICENTER":27.1299,"MEAN_ANOMALY":333.0444,"EPHEMERIS_TYPE":0,"CLASSIFICATION_TYPE":"U","NORAD_CAT_ID":58899,"ELEMENT_SET_NO":999,"REV_AT_EPOCH":12114,"BSTAR":0.0005442,"MEAN_MOTION_DOT":0.00020208,"MEAN_MOTION_DDOT":0},{"OBJECT_NAME":"LEMUR-2-VALHALLA","OBJECT_ID":"2024-022B","EPOCH":"2026-04-05T13:23:51.087552","MEAN_MOTION":15.37573321,"ECCENTRICITY":0.0010002,"INCLINATION":97.4188,"RA_OF_ASC_NODE":304.7607,"ARG_OF_PERICENTER":23.2896,"MEAN_ANOMALY":336.88,"EPHEMERIS_TYPE":0,"CLASSIFICATION_TYPE":"U","NORAD_CAT_ID":58900,"ELEMENT_SET_NO":999,"REV_AT_EPOCH":12110,"BSTAR":0.00053012156,"MEAN_MOTION_DOT":0.00019519,"MEAN_MOTION_DDOT":0},{"OBJECT_NAME":"LEMUR-2-OBA-NI-JESU","OBJECT_ID":"2024-022D","EPOCH":"2026-04-05T14:08:56.147136","MEAN_MOTION":15.72368687,"ECCENTRICITY":0.0002261,"INCLINATION":97.3988,"RA_OF_ASC_NODE":315.1454,"ARG_OF_PERICENTER":330.4076,"MEAN_ANOMALY":29.7059,"EPHEMERIS_TYPE":0,"CLASSIFICATION_TYPE":"U","NORAD_CAT_ID":58902,"ELEMENT_SET_NO":999,"REV_AT_EPOCH":12181,"BSTAR":0.0011411,"MEAN_MOTION_DOT":0.00153528,"MEAN_MOTION_DDOT":0},{"OBJECT_NAME":"LEMUR-2-CAEL","OBJECT_ID":"2024-022E","EPOCH":"2026-04-05T13:27:28.069920","MEAN_MOTION":15.38745526,"ECCENTRICITY":0.0007881,"INCLINATION":97.4171,"RA_OF_ASC_NODE":305.5789,"ARG_OF_PERICENTER":8.4508,"MEAN_ANOMALY":351.6869,"EPHEMERIS_TYPE":0,"CLASSIFICATION_TYPE":"U","NORAD_CAT_ID":58903,"ELEMENT_SET_NO":999,"REV_AT_EPOCH":12116,"BSTAR":0.00053853,"MEAN_MOTION_DOT":0.0002059,"MEAN_MOTION_DDOT":0},{"OBJECT_NAME":"LEMUR-2-JOHNNYTRUONG","OBJECT_ID":"2024-043BA","EPOCH":"2026-04-05T08:55:55.920864","MEAN_MOTION":15.55372726,"ECCENTRICITY":0.00049316,"INCLINATION":97.5309,"RA_OF_ASC_NODE":242.8963,"ARG_OF_PERICENTER":95.1752,"MEAN_ANOMALY":265.0065,"EPHEMERIS_TYPE":0,"CLASSIFICATION_TYPE":"U","NORAD_CAT_ID":59146,"ELEMENT_SET_NO":999,"REV_AT_EPOCH":11670,"BSTAR":0.00070393276,"MEAN_MOTION_DOT":0.00047973,"MEAN_MOTION_DDOT":0},{"OBJECT_NAME":"LEMUR-2-TOMATOKECHUP","OBJECT_ID":"2024-149D","EPOCH":"2026-04-05T18:15:08.095104","MEAN_MOTION":15.34567467,"ECCENTRICITY":0.0003179,"INCLINATION":97.3806,"RA_OF_ASC_NODE":177.7046,"ARG_OF_PERICENTER":120.8198,"MEAN_ANOMALY":239.3358,"EPHEMERIS_TYPE":0,"CLASSIFICATION_TYPE":"U","NORAD_CAT_ID":60471,"ELEMENT_SET_NO":999,"REV_AT_EPOCH":9105,"BSTAR":0.00045746,"MEAN_MOTION_DOT":0.00015256,"MEAN_MOTION_DDOT":0},{"OBJECT_NAME":"LEMUR-2-STELLA","OBJECT_ID":"2024-149BT","EPOCH":"2026-04-05T18:23:34.495872","MEAN_MOTION":15.10274353,"ECCENTRICITY":8.45e-5,"INCLINATION":97.6742,"RA_OF_ASC_NODE":177.9953,"ARG_OF_PERICENTER":119.7947,"MEAN_ANOMALY":240.3366,"EPHEMERIS_TYPE":0,"CLASSIFICATION_TYPE":"U","NORAD_CAT_ID":60533,"ELEMENT_SET_NO":999,"REV_AT_EPOCH":8956,"BSTAR":0.0010119,"MEAN_MOTION_DOT":0.00016526,"MEAN_MOTION_DDOT":0},{"OBJECT_NAME":"LEMUR-2-MARHISYAM","OBJECT_ID":"2024-149BW","EPOCH":"2026-04-05T17:19:53.438592","MEAN_MOTION":15.09790226,"ECCENTRICITY":0.0002062,"INCLINATION":97.6876,"RA_OF_ASC_NODE":178.3221,"ARG_OF_PERICENTER":44.8528,"MEAN_ANOMALY":315.2868,"EPHEMERIS_TYPE":0,"CLASSIFICATION_TYPE":"U","NORAD_CAT_ID":60536,"ELEMENT_SET_NO":999,"REV_AT_EPOCH":8954,"BSTAR":0.00096122,"MEAN_MOTION_DOT":0.00015486,"MEAN_MOTION_DDOT":0},{"OBJECT_NAME":"LEMUR-2-AHMED-ASRAR","OBJECT_ID":"2024-149DN","EPOCH":"2026-04-05T18:09:18.221760","MEAN_MOTION":15.11137895,"ECCENTRICITY":0.0001388,"INCLINATION":97.7003,"RA_OF_ASC_NODE":180.1806,"ARG_OF_PERICENTER":198.2879,"MEAN_ANOMALY":161.8301,"EPHEMERIS_TYPE":0,"CLASSIFICATION_TYPE":"U","NORAD_CAT_ID":60576,"ELEMENT_SET_NO":999,"REV_AT_EPOCH":8962,"BSTAR":0.00092533,"MEAN_MOTION_DOT":0.00015469,"MEAN_MOTION_DDOT":0},{"OBJECT_NAME":"LEMUR-2-LLOYD","OBJECT_ID":"2024-149DP","EPOCH":"2026-04-05T17:46:46.122240","MEAN_MOTION":15.07886193,"ECCENTRICITY":0.0004632,"INCLINATION":97.676,"RA_OF_ASC_NODE":176.9098,"ARG_OF_PERICENTER":55.8913,"MEAN_ANOMALY":304.2753,"EPHEMERIS_TYPE":0,"CLASSIFICATION_TYPE":"U","NORAD_CAT_ID":60577,"ELEMENT_SET_NO":999,"REV_AT_EPOCH":8947,"BSTAR":0.00087782,"MEAN_MOTION_DOT":0.00013418,"MEAN_MOTION_DDOT":0},{"OBJECT_NAME":"LEMUR-2-SQUIRRELCOMM","OBJECT_ID":"2024-149DQ","EPOCH":"2026-04-05T16:02:13.737120","MEAN_MOTION":15.06325836,"ECCENTRICITY":0.0004059,"INCLINATION":97.672,"RA_OF_ASC_NODE":176.8545,"ARG_OF_PERICENTER":304.2434,"MEAN_ANOMALY":55.8408,"EPHEMERIS_TYPE":0,"CLASSIFICATION_TYPE":"U","NORAD_CAT_ID":60578,"ELEMENT_SET_NO":999,"REV_AT_EPOCH":8948,"BSTAR":0.00053634,"MEAN_MOTION_DOT":7.828e-5,"MEAN_MOTION_DDOT":0},{"OBJECT_NAME":"LEMUR-2-SIERRINI","OBJECT_ID":"2024-149DR","EPOCH":"2026-04-05T19:07:08.222880","MEAN_MOTION":15.09467104,"ECCENTRICITY":0.000622,"INCLINATION":97.6842,"RA_OF_ASC_NODE":178.1573,"ARG_OF_PERICENTER":75.172,"MEAN_ANOMALY":285.0197,"EPHEMERIS_TYPE":0,"CLASSIFICATION_TYPE":"U","NORAD_CAT_ID":60579,"ELEMENT_SET_NO":999,"REV_AT_EPOCH":8953,"BSTAR":0.00095632,"MEAN_MOTION_DOT":0.00015276,"MEAN_MOTION_DDOT":0},{"OBJECT_NAME":"LEMUR-2-WILSON","OBJECT_ID":"2025-009CP","EPOCH":"2026-04-05T19:25:41.214720","MEAN_MOTION":14.9485212,"ECCENTRICITY":0.000189,"INCLINATION":97.7033,"RA_OF_ASC_NODE":175.5574,"ARG_OF_PERICENTER":278.7015,"MEAN_ANOMALY":81.3991,"EPHEMERIS_TYPE":0,"CLASSIFICATION_TYPE":"U","NORAD_CAT_ID":62694,"ELEMENT_SET_NO":999,"REV_AT_EPOCH":6654,"BSTAR":0.00032588,"MEAN_MOTION_DOT":3.493e-5,"MEAN_MOTION_DDOT":0},{"OBJECT_NAME":"LEMUR-2-STAR-FOX","OBJECT_ID":"2025-009CR","EPOCH":"2026-04-05T19:24:27.004032","MEAN_MOTION":15.01491961,"ECCENTRICITY":0.0003298,"INCLINATION":97.6976,"RA_OF_ASC_NODE":178.0223,"ARG_OF_PERICENTER":106.9963,"MEAN_ANOMALY":253.1622,"EPHEMERIS_TYPE":0,"CLASSIFICATION_TYPE":"U","NORAD_CAT_ID":62696,"ELEMENT_SET_NO":999,"REV_AT_EPOCH":6669,"BSTAR":0.00092732,"MEAN_MOTION_DOT":0.00011945,"MEAN_MOTION_DDOT":0}]
